ARIANE 44LP DEB         
1 33546U 88109V   26093.75310905 -.00000095  00000+0 -16723-3 0  9994
2 33546   7.0606 274.6491 7127343 347.0349 303.7764  2.23372527 19779
ARIANE 2 DEB            
1 33548U 89006AQ  26090.95758424 -.00000247  00000+0  00000+0 0  9999
2 33548  10.1113  13.8563 6924199 197.3047 115.4206  2.22279927166272
ARIANE 2 DEB            
1 33558U 89006BA  26087.92930062 -.00000198  00000+0  00000+0 0  9998
2 33558  10.5561   1.5575 6938680 213.1679  72.4440  2.21804704 19476
ARIANE 2 DEB            
1 33579U 89006BX  26094.08386757  .00000306  00000+0  16028-1 0  9991
2 33579  10.6786 112.7594 7087254 311.7965   9.8353  2.24857086193442
EXPRESS-AM44            
1 33595U 09007A   26094.88709992 -.00000087  00000+0  00000+0 0  9998
2 33595   3.2759  79.2772 0004340 295.9133 126.3629  1.00272369 51555
BREEZE-M R/B            
1 33598U 09007D   26094.30247365 -.00000117  00000+0  00000+0 0  9993
2 33598  12.3051  37.0444 0202284  59.2506 121.2748  0.97630770 61550
NSS-9                   
1 33749U 09008A   26094.85427422  .00000073  00000+0  00000+0 0  9996
2 33749   1.0722  83.3015 0002231 284.4722 315.9865  1.00272414 62788
TELSTAR 11N             
1 34111U 09009A   26094.88189990  .00000000  00000+0  00000+0 0  9999
2 34111   0.0158 191.5522 0002555 176.9908 104.5808  1.00268405 45515
SL-23 R/B               
1 34112U 09009B   26094.74747246 -.00000132  00000+0  00000+0 0  9996
2 34112  35.0602 286.9809 6887722 143.5006 352.4707  2.20445074137748
RADUGA-1 8              
1 34264U 09010A   26094.03874593  .00000078  00000+0  00000+0 0  9992
2 34264  11.9718  42.4013 0010600  20.5250 169.4495  0.99824962 62435
SL-12 R/B(2)            
1 34265U 09010B   26094.87108763 -.00000141  00000+0  00000+0 0  9996
2 34265  11.9664  42.3330 0003828 300.8017  71.9029  0.99995246 62463
WGS F2 (USA 204)        
1 34713U 09017A   26094.91226754  .00000000  00000+0  00000+0 0  9990
2 34713   0.0141 211.1065 0000106 209.6908 158.3409  1.00274308 44882
ATLAS 5 CENTAUR R/B     
1 34714U 09017B   26094.75328375 -.00000099  00000+0  46717-2 0  9992
2 34714  20.5466 336.9505 8184614  17.5416 359.2302  1.18222457 71757
SES-7 (PROTOSTAR 2)     
1 34941U 09027A   26094.92538056 -.00000344  00000+0  00000+0 0  9998
2 34941   0.0910  78.3927 0001940 243.7519 312.4738  1.00272402 61894
MEASAT-3A               
1 35362U 09032A   26094.84968088 -.00000110  00000+0  00000+0 0  9996
2 35362   0.0502  37.3207 0003203 341.6747 280.0420  1.00272310  7290
SL-23 R/B               
1 35363U 09032B   26094.35915388 -.00000056  00000+0  00000+0 0  9997
2 35363   8.0236 184.3172 4125487  90.4911 294.3811  1.68695348103374
GOES 14                 
1 35491U 09033A   26094.78297635  .00000048  00000+0  00000+0 0  9995
2 35491   1.5006  83.9313 0001831 296.9406 277.1581  1.00111808  5851
