[{"OBJECT_NAME":"ARIANE 44LP DEB","OBJECT_ID":"1988-109V","EPOCH":"2026-04-03T18:04:28.621920","MEAN_MOTION":2.23372527,"ECCENTRICITY":0.71273439,"INCLINATION":7.0606,"RA_OF_ASC_NODE":274.6491,"ARG_OF_PERICENTER":347.0349,"MEAN_ANOMALY":303.7764,"EPHEMERIS_TYPE":0,"CLASSIFICATION_TYPE":"U","NORAD_CAT_ID":33546,"ELEMENT_SET_NO":999,"REV_AT_EPOCH":1977,"BSTAR":-0.00016722508,"MEAN_MOTION_DOT":-9.5e-7,"MEAN_MOTION_DDOT":0},{"OBJECT_NAME":"ARIANE 2 DEB","OBJECT_ID":"1989-006AQ","EPOCH":"2026-03-31T22:58:55.278336","MEAN_MOTION":2.22279927,"ECCENTRICITY":0.69241998,"INCLINATION":10.1113,"RA_OF_ASC_NODE":13.8563,"ARG_OF_PERICENTER":197.3047,"MEAN_ANOMALY":115.4206,"EPHEMERIS_TYPE":0,"CLASSIFICATION_TYPE":"U","NORAD_CAT_ID":33548,"ELEMENT_SET_NO":999,"REV_AT_EPOCH":16627,"BSTAR":0,"MEAN_MOTION_DOT":-2.47e-6,"MEAN_MOTION_DDOT":0},{"OBJECT_NAME":"ARIANE 2 DEB","OBJECT_ID":"1989-006BA","EPOCH":"2026-03-28T22:18:11.573568","MEAN_MOTION":2.21804704,"ECCENTRICITY":0.69386804,"INCLINATION":10.5561,"RA_OF_ASC_NODE":1.5575,"ARG_OF_PERICENTER":213.1679,"MEAN_ANOMALY":72.444,"EPHEMERIS_TYPE":0,"CLASSIFICATION_TYPE":"U","NORAD_CAT_ID":33558,"ELEMENT_SET_NO":999,"REV_AT_EPOCH":1947,"BSTAR":0,"MEAN_MOTION_DOT":-1.98e-6,"MEAN_MOTION_DDOT":0},{"OBJECT_NAME":"ARIANE 2 DEB","OBJECT_ID":"1989-006BX","EPOCH":"2026-04-04T02:00:46.158048","MEAN_MOTION":2.24857086,"ECCENTRICITY":0.70872543,"INCLINATION":10.6786,"RA_OF_ASC_NODE":112.7594,"ARG_OF_PERICENTER":311.7965,"MEAN_ANOMALY":9.8353,"EPHEMERIS_TYPE":0,"CLASSIFICATION_TYPE":"U","NORAD_CAT_ID":33579,"ELEMENT_SET_NO":999,"REV_AT_EPOCH":19344,"BSTAR":0.016027849,"MEAN_MOTION_DOT":3.06e-6,"MEAN_MOTION_DDOT":0},{"OBJECT_NAME":"EXPRESS-AM44","OBJECT_ID":"2009-007A","EPOCH":"2026-04-04T21:17:25.433088","MEAN_MOTION":1.00272369,"ECCENTRICITY":0.00043406,"INCLINATION":3.2759,"RA_OF_ASC_NODE":79.2772,"ARG_OF_PERICENTER":295.9133,"MEAN_ANOMALY":126.3629,"EPHEMERIS_TYPE":0,"CLASSIFICATION_TYPE":"U","NORAD_CAT_ID":33595,"ELEMENT_SET_NO":999,"REV_AT_EPOCH":5155,"BSTAR":0,"MEAN_MOTION_DOT":-8.7e-7,"MEAN_MOTION_DDOT":0},{"OBJECT_NAME":"BREEZE-M R/B","OBJECT_ID":"2009-007D","EPOCH":"2026-04-04T07:15:33.723360","MEAN_MOTION":0.9763077,"ECCENTRICITY":0.02022841,"INCLINATION":12.3051,"RA_OF_ASC_NODE":37.0444,"ARG_OF_PERICENTER":59.2506,"MEAN_ANOMALY":121.2748,"EPHEMERIS_TYPE":0,"CLASSIFICATION_TYPE":"U","NORAD_CAT_ID":33598,"ELEMENT_SET_NO":999,"REV_AT_EPOCH":6155,"BSTAR":0,"MEAN_MOTION_DOT":-1.17e-6,"MEAN_MOTION_DDOT":0},{"OBJECT_NAME":"NSS-9","OBJECT_ID":"2009-008A","EPOCH":"2026-04-04T20:30:09.292608","MEAN_MOTION":1.00272414,"ECCENTRICITY":0.00022318,"INCLINATION":1.0722,"RA_OF_ASC_NODE":83.3015,"ARG_OF_PERICENTER":284.4722,"MEAN_ANOMALY":315.9865,"EPHEMERIS_TYPE":0,"CLASSIFICATION_TYPE":"U","NORAD_CAT_ID":33749,"ELEMENT_SET_NO":999,"REV_AT_EPOCH":6278,"BSTAR":0,"MEAN_MOTION_DOT":7.3e-7,"MEAN_MOTION_DDOT":0},{"OBJECT_NAME":"TELSTAR 11N","OBJECT_ID":"2009-009A","EPOCH":"2026-04-04T21:09:56.151360","MEAN_MOTION":1.00268405,"ECCENTRICITY":0.0002555,"INCLINATION":0.0158,"RA_OF_ASC_NODE":191.5522,"ARG_OF_PERICENTER":176.9908,"MEAN_ANOMALY":104.5808,"EPHEMERIS_TYPE":0,"CLASSIFICATION_TYPE":"U","NORAD_CAT_ID":34111,"ELEMENT_SET_NO":999,"REV_AT_EPOCH":4551,"BSTAR":0,"MEAN_MOTION_DOT":0,"MEAN_MOTION_DDOT":0},{"OBJECT_NAME":"SL-23 R/B","OBJECT_ID":"2009-009B","EPOCH":"2026-04-04T17:56:21.620544","MEAN_MOTION":2.20445074,"ECCENTRICITY":0.68877223,"INCLINATION":35.0602,"RA_OF_ASC_NODE":286.9809,"ARG_OF_PERICENTER":143.5006,"MEAN_ANOMALY":352.4707,"EPHEMERIS_TYPE":0,"CLASSIFICATION_TYPE":"U","NORAD_CAT_ID":34112,"ELEMENT_SET_NO":999,"REV_AT_EPOCH":13774,"BSTAR":0,"MEAN_MOTION_DOT":-1.32e-6,"MEAN_MOTION_DDOT":0},{"OBJECT_NAME":"RADUGA-1 8","OBJECT_ID":"2009-010A","EPOCH":"2026-04-04T00:55:47.648352","MEAN_MOTION":0.99824962,"ECCENTRICITY":0.00106006,"INCLINATION":11.9718,"RA_OF_ASC_NODE":42.4013,"ARG_OF_PERICENTER":20.525,"MEAN_ANOMALY":169.4495,"EPHEMERIS_TYPE":0,"CLASSIFICATION_TYPE":"U","NORAD_CAT_ID":34264,"ELEMENT_SET_NO":999,"REV_AT_EPOCH":6243,"BSTAR":0,"MEAN_MOTION_DOT":7.8e-7,"MEAN_MOTION_DDOT":0},{"OBJECT_NAME":"SL-12 R/B(2)","OBJECT_ID":"2009-010B","EPOCH":"2026-04-04T20:54:21.971232","MEAN_MOTION":0.99995246,"ECCENTRICITY":0.00038283,"INCLINATION":11.9664,"RA_OF_ASC_NODE":42.333,"ARG_OF_PERICENTER":300.8017,"MEAN_ANOMALY":71.9029,"EPHEMERIS_TYPE":0,"CLASSIFICATION_TYPE":"U","NORAD_CAT_ID":34265,"ELEMENT_SET_NO":999,"REV_AT_EPOCH":6246,"BSTAR":0,"MEAN_MOTION_DOT":-1.41e-6,"MEAN_MOTION_DDOT":0},{"OBJECT_NAME":"WGS F2 (USA 204)","OBJECT_ID":"2009-017A","EPOCH":"2026-04-04T21:53:39.915456","MEAN_MOTION":1.00274308,"ECCENTRICITY":1.068e-5,"INCLINATION":0.0141,"RA_OF_ASC_NODE":211.1065,"ARG_OF_PERICENTER":209.6908,"MEAN_ANOMALY":158.3409,"EPHEMERIS_TYPE":0,"CLASSIFICATION_TYPE":"U","NORAD_CAT_ID":34713,"ELEMENT_SET_NO":999,"REV_AT_EPOCH":4488,"BSTAR":0,"MEAN_MOTION_DOT":0,"MEAN_MOTION_DDOT":0},{"OBJECT_NAME":"ATLAS 5 CENTAUR R/B","OBJECT_ID":"2009-017B","EPOCH":"2026-04-04T18:04:43.716000","MEAN_MOTION":1.18222457,"ECCENTRICITY":0.81846149,"INCLINATION":20.5466,"RA_OF_ASC_NODE":336.9505,"ARG_OF_PERICENTER":17.5416,"MEAN_ANOMALY":359.2302,"EPHEMERIS_TYPE":0,"CLASSIFICATION_TYPE":"U","NORAD_CAT_ID":34714,"ELEMENT_SET_NO":999,"REV_AT_EPOCH":7175,"BSTAR":0.004671737,"MEAN_MOTION_DOT":-9.9e-7,"MEAN_MOTION_DDOT":0},{"OBJECT_NAME":"SES-7 (PROTOSTAR 2)","OBJECT_ID":"2009-027A","EPOCH":"2026-04-04T22:12:32.880384","MEAN_MOTION":1.00272402,"ECCENTRICITY":0.00019401,"INCLINATION":0.091,"RA_OF_ASC_NODE":78.3927,"ARG_OF_PERICENTER":243.7519,"MEAN_ANOMALY":312.4738,"EPHEMERIS_TYPE":0,"CLASSIFICATION_TYPE":"U","NORAD_CAT_ID":34941,"ELEMENT_SET_NO":999,"REV_AT_EPOCH":6189,"BSTAR":0,"MEAN_MOTION_DOT":-3.44e-6,"MEAN_MOTION_DDOT":0},{"OBJECT_NAME":"MEASAT-3A","OBJECT_ID":"2009-032A","EPOCH":"2026-04-04T20:23:32.428032","MEAN_MOTION":1.0027231,"ECCENTRICITY":0.0003203,"INCLINATION":0.0502,"RA_OF_ASC_NODE":37.3207,"ARG_OF_PERICENTER":341.6747,"MEAN_ANOMALY":280.042,"EPHEMERIS_TYPE":0,"CLASSIFICATION_TYPE":"U","NORAD_CAT_ID":35362,"ELEMENT_SET_NO":999,"REV_AT_EPOCH":729,"BSTAR":0,"MEAN_MOTION_DOT":-1.1e-6,"MEAN_MOTION_DDOT":0},{"OBJECT_NAME":"SL-23 R/B","OBJECT_ID":"2009-032B","EPOCH":"2026-04-04T08:37:10.895232","MEAN_MOTION":1.68695348,"ECCENTRICITY":0.41254879,"INCLINATION":8.0236,"RA_OF_ASC_NODE":184.3172,"ARG_OF_PERICENTER":90.4911,"MEAN_ANOMALY":294.3811,"EPHEMERIS_TYPE":0,"CLASSIFICATION_TYPE":"U","NORAD_CAT_ID":35363,"ELEMENT_SET_NO":999,"REV_AT_EPOCH":10337,"BSTAR":0,"MEAN_MOTION_DOT":-5.6e-7,"MEAN_MOTION_DDOT":0},{"OBJECT_NAME":"GOES 14","OBJECT_ID":"2009-033A","EPOCH":"2026-04-04T18:47:29.156640","MEAN_MOTION":1.00111808,"ECCENTRICITY":0.00018319,"INCLINATION":1.5006,"RA_OF_ASC_NODE":83.9313,"ARG_OF_PERICENTER":296.9406,"MEAN_ANOMALY":277.1581,"EPHEMERIS_TYPE":0,"CLASSIFICATION_TYPE":"U","NORAD_CAT_ID":35491,"ELEMENT_SET_NO":999,"REV_AT_EPOCH":585,"BSTAR":0,"MEAN_MOTION_DOT":4.8e-7,"MEAN_MOTION_DDOT":0}]
